[{"OBJECT_NAME":"STARLINK-34563","OBJECT_ID":"2025-142N","EPOCH":"2026-03-09T22:38:55.151232","MEAN_MOTION":14.98330472,"ECCENTRICITY":0.00027736,"INCLINATION":70.0014,"RA_OF_ASC_NODE":314.0213,"ARG_OF_PERICENTER":268.4296,"MEAN_ANOMALY":91.6545,"EPHEMERIS_TYPE":0,"CLASSIFICATION_TYPE":"U","NORAD_CAT_ID":64708,"ELEMENT_SET_NO":999,"REV_AT_EPOCH":3949,"BSTAR":0.00035972076,"MEAN_MOTION_DOT":4.202e-5,"MEAN_MOTION_DDOT":0},{"OBJECT_NAME":"CZ-2C DEB","OBJECT_ID":"2013-035D","EPOCH":"2026-03-09T23:34:49.287360","MEAN_MOTION":14.88810695,"ECCENTRICITY":0.00555667,"INCLINATION":97.8149,"RA_OF_ASC_NODE":69.2801,"ARG_OF_PERICENTER":125.3803,"MEAN_ANOMALY":235.2624,"EPHEMERIS_TYPE":0,"CLASSIFICATION_TYPE":"U","NORAD_CAT_ID":39205,"ELEMENT_SET_NO":999,"REV_AT_EPOCH":67351,"BSTAR":0.0012724881,"MEAN_MOTION_DOT":0.0001222,"MEAN_MOTION_DDOT":0}]
